DUPLEX                  
1 66906U 98067XS  26087.97156326  .00033749  00000+0  45468-3 0  9994
2 66906  51.6302 332.9170 0002979 200.7419 159.3453 15.57505635 18136
ISS OBJECT XT           
1 66907U 98067XT  26088.02758704  .00240433  00000+0  14473-2 0  9991
2 66907  51.6243 326.5038 0006045 205.1470 154.9236 15.76429698 18222
ISS OBJECT XU           
1 66908U 98067XU  26088.02375823  .00249218  00000+0  14811-2 0  9995
2 66908  51.6247 326.4734 0006285 205.0225 155.0471 15.76691690 18228
SILVERSAT               
1 66909U 98067XV  26088.04013938  .00358553  00000+0  16517-2 0  9992
2 66909  51.6214 325.0706 0007067 211.1784 148.8799 15.82009112 18248
ISS OBJECT XW           
1 66910U 98067XW  26088.03489571  .00212904  00000+0  13710-2 0  9994
2 66910  51.6232 326.5457 0006342 202.5338 157.5384 15.74966999 18224
ISS OBJECT XX           
1 66911U 98067XX  26088.04387574  .00556003  00000+0  18090-2 0  9993
2 66911  51.6187 323.5595 0008896 215.9725 144.0682 15.88734318 18256
ISS OBJECT XY           
1 66912U 98067XY  26088.04979142  .00115852  00000+0  10294-2 0  9993
2 66912  51.6270 328.9267 0004320 201.5459 158.5356 15.67649545 18182
KNACKSAT-2              
1 67683U 98067XZ  26087.90823796  .00045826  00000+0  71242-3 0  9990
2 67683  51.6324 336.2444 0010006 255.4599 104.5282 15.53414385  7777
CORAL                   
1 67684U 98067YA  26088.09684014  .00095932  00000+0  12606-2 0  9991
2 67684  51.6305 334.5038 0012778 245.5600 114.4059 15.57621813  7815
GXIBA-1                 
1 67685U 98067YB  26088.09113801  .00052441  00000+0  79625-3 0  9996
2 67685  51.6326 335.2157 0011973 252.9526 107.0153 15.53980859  7800
UITMSAT-2               
1 67686U 98067YC  26088.07636976  .00061436  00000+0  89979-3 0  9995
2 67686  51.6323 335.1195 0009100 224.8409 135.1847 15.54935303  7803
HMU-SAT2                
1 67687U 98067YD  26087.96746992  .00051323  00000+0  78829-3 0  9999
2 67687  51.6327 335.8929 0008608 227.2512 132.7755 15.53712638  7707
LEOPARD                 
1 67688U 98067YE  26087.95453149  .00056841  00000+0  84740-3 0  9997
2 67688  51.6331 335.8065 0008819 224.9163 135.1115 15.54486105  7709
CREW DRAGON 12          
1 67796U 26031A   26088.13267411  .00012260  00000+0  23326-3 0  9995
2 67796  51.6344 336.2407 0006215 245.2164 114.8178 15.48624340559302
PROGRESS-MS 33          
1 68319U 26058A   26088.13267411  .00012260  00000+0  23326-3 0  9996
2 68319  51.6344 336.2407 0006215 245.2164 114.8178 15.48624340   811
